{"type": "FeatureCollection", "features": [ {"type": "Feature", "properties": {"norad_id": 31542, "name": "FENGYUN 1C DEB", "group": "fengyun-1c-debris", "lat": 64.49436911202095, "lon": 10.479538987505855, "alt_km": 843.5134466975423, "timestamp": "2025-12-01T03:58:50.097897+00:00", "meta": {"OBJECT_NAME": "FENGYUN 1C DEB", "OBJECT_ID": "1999-025BYH", "EPOCH": "2025-11-30T14:09:57.790080", "MEAN_MOTION": 14.22685015, "ECCENTRICITY": 0.004689, "INCLINATION": 98.7331, "RA_OF_ASC_NODE": 28.7039, "ARG_OF_PERICENTER": 241.7898, "MEAN_ANOMALY": 117.854, "EPHEMERIS_TYPE": 0, "CLASSIFICATION_TYPE": "U", "NORAD_CAT_ID": 31542, "ELEMENT_SET_NO": 999, "REV_AT_EPOCH": 95767, "BSTAR": 0.0013211, "MEAN_MOTION_DOT": 2.947e-05, "MEAN_MOTION_DDOT": 0, "GROUP": "fengyun-1c-debris"}, "tle": {"line1": "1 31542U 99025BYH 25334.59025220  .00002947  00000+0  13211-2 0  9993", "line2": "2 31542  98.7331  28.7039 0046890 241.7898 117.8540 14.22685015957677"}}, "geometry": {"type": "Point", "coordinates": [10.479538987505855, 64.49436911202095]}}, {"type": "Feature", "properties": {"norad_id": 31544, "name": "FENGYUN 1C DEB", "group": "fengyun-1c-debris", "lat": 32.330576400234136, "lon": -147.787909404588, "alt_km": 863.4329002272498, "timestamp": "2025-12-01T03:58:50.097908+00:00", "meta": {"OBJECT_NAME": "FENGYUN 1C DEB", "OBJECT_ID": "1999-025BYK", "EPOCH": "2025-11-29T13:55:50.953440", "MEAN_MOTION": 14.14279568, "ECCENTRICITY": 0.00313575, "INCLINATION": 98.831, "RA_OF_ASC_NODE": 24.9985, "ARG_OF_PERICENTER": 307.4599, "MEAN_ANOMALY": 52.3723, "EPHEMERIS_TYPE": 0, "CLASSIFICATION_TYPE": "U", "NORAD_CAT_ID": 31544, "ELEMENT_SET_NO": 999, "REV_AT_EPOCH": 95571, "BSTAR": 0.00072227693, "MEAN_MOTION_DOT": 1.342e-05, "MEAN_MOTION_DDOT": 0, "GROUP": "fengyun-1c-debris"}, "tle": {"line1": "1 31544U 99025BYK 25333.58045085  .00001342  00000+0  72228-3 0  9996", "line2": "2 31544  98.8310  24.9985 0031357 307.4599  52.3723 14.14279568955717"}}, "geometry": {"type": "Point", "coordinates": [-147.787909404588, 32.330576400234136]}}, {"type": "Feature", "properties": {"norad_id": 31546, "name": "FENGYUN 1C DEB", "group": "fengyun-1c-debris", "lat": 4.146714570216576, "lon": 44.98097079843772, "alt_km": 954.2777918776856, "timestamp": "2025-12-01T03:58:50.097919+00:00", "meta": {"OBJECT_NAME": "FENGYUN 1C DEB", "OBJECT_ID": "1999-025BYM", "EPOCH": "2025-11-30T16:03:48.746016", "MEAN_MOTION": 14.12980399, "ECCENTRICITY": 0.014685, "INCLINATION": 98.246, "RA_OF_ASC_NODE": 45.1257, "ARG_OF_PERICENTER": 171.3779, "MEAN_ANOMALY": 188.997, "EPHEMERIS_TYPE": 0, "CLASSIFICATION_TYPE": "U", "NORAD_CAT_ID": 31546, "ELEMENT_SET_NO": 999, "REV_AT_EPOCH": 94618, "BSTAR": 0.0019298, "MEAN_MOTION_DOT": 3.948e-05, "MEAN_MOTION_DDOT": 0, "GROUP": "fengyun-1c-debris"}, "tle": {"line1": "1 31546U 99025BYM 25334.66931419  .00003948  00000+0  19298-2 0  9994", "line2": "2 31546  98.2460  45.1257 0146850 171.3779 188.9970 14.12980399946189"}}, "geometry": {"type": "Point", "coordinates": [44.98097079843772, 4.146714570216576]}}, {"type": "Feature", "properties": {"norad_id": 31547, "name": "FENGYUN 1C DEB", "group": "fengyun-1c-debris", "lat": 74.716190442599, "lon": -17.284072807499356, "alt_km": 841.3868431721494, "timestamp": "2025-12-01T03:58:50.097929+00:00", "meta": {"OBJECT_NAME": "FENGYUN 1C DEB", "OBJECT_ID": "1999-025BYN", "EPOCH": "2025-11-27T01:44:24.889920", "MEAN_MOTION": 14.22993303, "ECCENTRICITY": 0.00530664, "INCLINATION": 99.0869, "RA_OF_ASC_NODE": 14.3438, "ARG_OF_PERICENTER": 298.214, "MEAN_ANOMALY": 61.3684, "EPHEMERIS_TYPE": 0, "CLASSIFICATION_TYPE": "U", "NORAD_CAT_ID": 31547, "ELEMENT_SET_NO": 999, "REV_AT_EPOCH": 63794, "BSTAR": 0.0016207535, "MEAN_MOTION_DOT": 3.657e-05, "MEAN_MOTION_DDOT": 0, "GROUP": "fengyun-1c-debris"}, "tle": {"line1": "1 31547U 99025BYN 25331.07251030  .00003657  00000+0  16208-2 0  9996", "line2": "2 31547  99.0869  14.3438 0053066 298.2140  61.3684 14.22993303637945"}}, "geometry": {"type": "Point", "coordinates": [-17.284072807499356, 74.716190442599]}}, {"type": "Feature", "properties": {"norad_id": 31550, "name": "FENGYUN 1C DEB", "group": "fengyun-1c-debris", "lat": -79.07982832294383, "lon": 105.69194036305173, "alt_km": 668.0766298479894, "timestamp": "2025-12-01T03:58:50.097940+00:00", "meta": {"OBJECT_NAME": "FENGYUN 1C DEB", "OBJECT_ID": "1999-025BYR", "EPOCH": "2025-11-30T06:44:17.882592", "MEAN_MOTION": 14.400828, "ECCENTRICITY": 0.01907459, "INCLINATION": 98.3118, "RA_OF_ASC_NODE": 334.0953, "ARG_OF_PERICENTER": 310.6004, "MEAN_ANOMALY": 47.8722, "EPHEMERIS_TYPE": 0, "CLASSIFICATION_TYPE": "U", "NORAD_CAT_ID": 31550, "ELEMENT_SET_NO": 999, "REV_AT_EPOCH": 65275, "BSTAR": 0.0009826252, "MEAN_MOTION_DOT": 3.793e-05, "MEAN_MOTION_DDOT": 0, "GROUP": "fengyun-1c-debris"}, "tle": {"line1": "1 31550U 99025BYR 25334.28076253  .00003793  00000+0  98263-3 0  9991", "line2": "2 31550  98.3118 334.0953 0190745 310.6004  47.8722 14.40082800652755"}}, "geometry": {"type": "Point", "coordinates": [105.69194036305173, -79.07982832294383]}}, {"type": "Feature", "properties": {"norad_id": 31552, "name": "FENGYUN 1C DEB", "group": "fengyun-1c-debris", "lat": 12.517049550981461, "lon": 94.90716289335803, "alt_km": 697.5970352147569, "timestamp": "2025-12-01T03:58:50.097951+00:00", "meta": {"OBJECT_NAME": "FENGYUN 1C DEB", "OBJECT_ID": "1999-025BYT", "EPOCH": "2025-11-30T14:37:50.555424", "MEAN_MOTION": 14.45288601, "ECCENTRICITY": 0.0086373, "INCLINATION": 98.621, "RA_OF_ASC_NODE": 96.2726, "ARG_OF_PERICENTER": 58.268, "MEAN_ANOMALY": 302.6892, "EPHEMERIS_TYPE": 0, "CLASSIFICATION_TYPE": "U", "NORAD_CAT_ID": 31552, "ELEMENT_SET_NO": 999, "REV_AT_EPOCH": 95701, "BSTAR": 0.00311, "MEAN_MOTION_DOT": 0.00011399, "MEAN_MOTION_DDOT": 0, "GROUP": "fengyun-1c-debris"}, "tle": {"line1": "1 31552U 99025BYT 25334.60961291  .00011399  00000+0  31100-2 0  9991", "line2": "2 31552  98.6210  96.2726 0086373  58.2680 302.6892 14.45288601957013"}}, "geometry": {"type": "Point", "coordinates": [94.90716289335803, 12.517049550981461]}}, {"type": "Feature", "properties": {"norad_id": 31553, "name": "FENGYUN 1C DEB", "group": "fengyun-1c-debris", "lat": -23.5021371862567, "lon": -154.43080285535245, "alt_km": 789.145421646027, "timestamp": "2025-12-01T03:58:50.097961+00:00", "meta": {"OBJECT_NAME": "FENGYUN 1C DEB", "OBJECT_ID": "1999-025BYU", "EPOCH": "2025-11-29T14:49:52.934592", "MEAN_MOTION": 14.29983398, "ECCENTRICITY": 0.00314236, "INCLINATION": 99.0041, "RA_OF_ASC_NODE": 27.9227, "ARG_OF_PERICENTER": 138.851, "MEAN_ANOMALY": 20.556, "EPHEMERIS_TYPE": 0, "CLASSIFICATION_TYPE": "U", "NORAD_CAT_ID": 31553, "ELEMENT_SET_NO": 999, "REV_AT_EPOCH": 95722, "BSTAR": 0.0016265323, "MEAN_MOTION_DOT": 4.172e-05, "MEAN_MOTION_DDOT": 0, "GROUP": "fengyun-1c-debris"}, "tle": {"line1": "1 31553U 99025BYU 25333.61797378  .00004172  00000+0  16265-2 0  9991", "line2": "2 31553  99.0041  27.9227 0031423 138.8510  20.5560 14.29983398957229"}}, "geometry": {"type": "Point", "coordinates": [-154.43080285535245, -23.5021371862567]}}, {"type": "Feature", "properties": {"norad_id": 31555, "name": "FENGYUN 1C DEB", "group": "fengyun-1c-debris", "lat": 78.16371434932944, "lon": 158.40278606091115, "alt_km": 812.7410874721581, "timestamp": "2025-12-01T03:58:50.097972+00:00", "meta": {"OBJECT_NAME": "FENGYUN 1C DEB", "OBJECT_ID": "1999-025BYW", "EPOCH": "2025-11-27T14:42:19.133280", "MEAN_MOTION": 14.43994409, "ECCENTRICITY": 0.01546625, "INCLINATION": 99.1022, "RA_OF_ASC_NODE": 284.6976, "ARG_OF_PERICENTER": 241.5854, "MEAN_ANOMALY": 116.9673, "EPHEMERIS_TYPE": 0, "CLASSIFICATION_TYPE": "U", "NORAD_CAT_ID": 31555, "ELEMENT_SET_NO": 999, "REV_AT_EPOCH": 96345, "BSTAR": 0.0016167717, "MEAN_MOTION_DOT": 6.34e-05, "MEAN_MOTION_DDOT": 0, "GROUP": "fengyun-1c-debris"}, "tle": {"line1": "1 31555U 99025BYW 25331.61272145  .00006340  00000+0  16168-2 0  9992", "line2": "2 31555  99.1022 284.6976 0154662 241.5854 116.9673 14.43994409963456"}}, "geometry": {"type": "Point", "coordinates": [158.40278606091115, 78.16371434932944]}}, {"type": "Feature", "properties": {"norad_id": 31558, "name": "FENGYUN 1C DEB", "group": "fengyun-1c-debris", "lat": -66.16100946595317, "lon": 29.759742933080762, "alt_km": 669.580459229408, "timestamp": "2025-12-01T03:58:50.097983+00:00", "meta": {"OBJECT_NAME": "FENGYUN 1C DEB", "OBJECT_ID": "1999-025BYZ", "EPOCH": "2025-11-27T04:23:47.455296", "MEAN_MOTION": 14.38637662, "ECCENTRICITY": 0.02113689, "INCLINATION": 98.7902, "RA_OF_ASC_NODE": 226.1774, "ARG_OF_PERICENTER": 308.6292, "MEAN_ANOMALY": 205.9773, "EPHEMERIS_TYPE": 0, "CLASSIFICATION_TYPE": "U", "NORAD_CAT_ID": 31558, "ELEMENT_SET_NO": 999, "REV_AT_EPOCH": 97211, "BSTAR": 0.00041181281, "MEAN_MOTION_DOT": 1.58e-05, "MEAN_MOTION_DDOT": 0, "GROUP": "fengyun-1c-debris"}, "tle": {"line1": "1 31558U 99025BYZ 25331.18318814  .00001580  00000+0  41181-3 0  9996", "line2": "2 31558  98.7902 226.1774 0211368 308.6292 205.9773 14.38637662972118"}}, "geometry": {"type": "Point", "coordinates": [29.759742933080762, -66.16100946595317]}}]}